OBJECT_NAME,OBJECT_ID,EPOCH,MEAN_MOTION,ECCENTRICITY,INCLINATION,RA_OF_ASC_NODE,ARG_OF_PERICENTER,MEAN_ANOMALY,EPHEMERIS_TYPE,CLASSIFICATION_TYPE,NORAD_CAT_ID,ELEMENT_SET_NO,REV_AT_EPOCH,BSTAR,MEAN_MOTION_DOT,MEAN_MOTION_DDOT
IRIDIUM 138,2017-083B,2026-06-08T12:36:55.226016,14.34218187,.0002413,86.3973,325.3319,88.6809,271.4663,0,U,43071,999,44289,.77792E-4,.238E-5,0
IRIDIUM 116,2017-083C,2026-06-08T11:51:15.130368,14.34217695,.0001855,86.3958,325.6370,94.1641,265.9767,0,U,43072,999,44292,.65289E-4,.203E-5,0
IRIDIUM 130,2017-083D,2026-06-08T17:47:27.069792,14.34218525,.0001953,86.3968,325.8081,88.0059,272.1360,0,U,43073,999,44290,.82589E-4,.251E-5,0
IRIDIUM 134,2017-083F,2026-06-08T18:05:43.136736,14.34217809,.0001997,86.3956,325.5938,89.2746,270.8679,0,U,43075,999,44289,-.17862E-5,.15E-6,0
IRIDIUM 137,2017-083G,2026-06-08T11:42:07.108128,14.34217378,.0001894,86.3957,325.7977,103.4756,256.6651,0,U,43076,999,44292,-.4892E-6,.18E-6,0
IRIDIUM 153,2017-083J,2026-06-08T18:46:27.428160,14.34217658,.0002235,86.3953,293.9858,91.0282,269.1170,0,U,43078,999,44407,.82084E-6,.22E-6,0
IRIDIUM 131,2017-083K,2026-06-08T17:56:35.153376,14.34217338,.0002098,86.3960,325.7056,91.8257,268.3179,0,U,43079,999,44289,-.1619E-4,-.26E-6,0
IRIDIUM 144,2018-030A,2026-06-08T18:55:35.372640,14.34217292,.0001939,86.3950,293.9126,95.7812,264.3605,0,U,43249,999,42893,-.22674E-4,-.44E-6,0
IRIDIUM 149,2018-030B,2026-06-08T19:04:43.439808,14.34217840,.0002257,86.3952,293.8769,93.2398,266.9056,0,U,43250,999,42895,.10821E-4,.5E-6,0
IRIDIUM 157,2018-030C,2026-06-08T19:32:07.433088,14.34217760,.0002195,86.3954,293.9217,94.0523,266.0923,0,U,43251,999,42893,.9005E-5,.45E-6,0
IRIDIUM 140,2018-030D,2026-06-08T18:19:03.396000,14.34217807,.0002148,86.3954,293.9556,92.3114,267.8327,0,U,43252,999,42898,.78958E-5,.42E-6,0
IRIDIUM 145,2018-030E,2026-06-08T18:00:47.282400,14.34218261,.0001861,86.3952,293.9331,97.0171,263.1236,0,U,43253,999,42891,.57739E-4,.181E-5,0
IRIDIUM 146,2018-030F,2026-06-08T19:13:51.411072,14.34217647,.0002098,86.3953,293.9241,95.6449,264.4986,0,U,43254,999,42893,.44383E-5,.32E-6,0
IRIDIUM 148,2018-030G,2026-06-08T18:28:11.375040,14.34217436,.0002068,86.3951,293.9805,97.2205,262.9225,0,U,43255,999,42896,-.66105E-5,.1E-7,0
IRIDIUM 142,2018-030H,2026-06-08T19:22:59.365056,14.34217829,.0002041,86.3951,293.8538,96.3464,263.7964,0,U,43256,999,42893,.11845E-4,.53E-6,0
IRIDIUM 150,2018-030J,2026-06-08T18:37:19.406784,14.34217902,.0002162,86.3955,293.9832,92.1960,267.9484,0,U,43257,999,42895,.12387E-4,.54E-6,0
IRIDIUM 143,2018-030K,2026-06-08T18:09:55.364256,14.34218152,.0002097,86.3958,294.0832,94.3968,265.7468,0,U,43258,999,42888,.22519E-4,.83E-6,0
IRIDIUM 161,2018-047C,2026-06-08T18:43:08.950944,14.43278524,.0002543,86.4481,91.9860,88.0777,272.0715,0,U,43478,999,42392,.96054E-4,.343E-5,0
IRIDIUM 152,2018-047D,2026-06-08T19:11:06.279072,14.34217817,.0002375,86.3956,91.8390,84.6667,275.4800,0,U,43479,999,42128,.38436E-5,.31E-6,0
IRIDIUM 147,2018-047E,2026-06-08T19:20:14.232192,14.34217809,.0002142,86.3959,91.8414,84.9691,275.1749,0,U,43480,999,42128,.21152E-4,.79E-6,0
IRIDIUM 110,2018-047F,2026-06-08T19:29:22.322688,14.34217527,.0002466,86.3959,91.9304,86.1524,273.9954,0,U,43481,999,42127,-.43581E-5,.8E-7,0
IRIDIUM 162,2018-047G,2026-06-08T18:34:04.866816,14.43277166,.000234,86.4478,91.8799,83.4866,276.6601,0,U,43482,999,42391,.97903E-4,.349E-5,0
IRIDIUM 160,2018-061A,2026-06-08T18:11:22.458912,14.34217897,.0002277,86.3967,60.3218,86.6687,273.4770,0,U,43569,999,41216,.37943E-5,.3E-6,0
IRIDIUM 166,2018-061B,2026-06-08T18:47:54.468384,14.34217493,.0002008,86.3966,60.2614,84.8251,275.3173,0,U,43570,999,41219,-.57454E-5,.4E-7,0
IRIDIUM 158,2018-061C,2026-06-08T18:02:14.447040,14.34217723,.0002272,86.3966,60.2849,82.6918,277.4536,0,U,43571,999,41215,.36144E-4,.121E-5,0
IRIDIUM 165,2018-061D,2026-06-08T18:38:46.084128,14.34216432,.0002087,86.3968,60.3203,85.8344,274.3090,0,U,43572,999,41218,.60154E-4,.188E-5,0
IRIDIUM 155,2018-061E,2026-06-08T19:24:26.453664,14.34217737,.0002166,86.3964,60.1764,82.8866,277.2576,0,U,43573,999,41215,-.72056E-6,.18E-6,0
IRIDIUM 154,2018-061F,2026-06-08T18:57:02.431008,14.34217888,.0002069,86.3969,60.3179,87.1433,272.9999,0,U,43574,999,41220,.15213E-4,.62E-6,0
IRIDIUM 163,2018-061G,2026-06-08T18:29:37.521024,14.34215693,.000235,86.3967,60.2412,82.9658,277.1805,0,U,43575,999,41217,.72166E-4,.222E-5,0
