IRIDIUM 138             
1 43071U 17083B   26159.52563920  .00000238  00000+0  77792-4 0  9997
2 43071  86.3973 325.3319 0002412  88.6809 271.4663 14.34218187442892
IRIDIUM 116             
1 43072U 17083C   26159.49392512  .00000203  00000+0  65289-4 0  9991
2 43072  86.3958 325.6370 0001855  94.1641 265.9767 14.34217695442922
IRIDIUM 130             
1 43073U 17083D   26159.74128553  .00000251  00000+0  82589-4 0  9997
2 43073  86.3968 325.8081 0001953  88.0059 272.1360 14.34218525442909
IRIDIUM 134             
1 43075U 17083F   26159.75397149  .00000015  00000+0 -17862-5 0  9991
2 43075  86.3956 325.5938 0001997  89.2746 270.8679 14.34217809442890
IRIDIUM 137             
1 43076U 17083G   26159.48758228  .00000018  00000+0 -48920-6 0  9994
2 43076  86.3957 325.7977 0001894 103.4756 256.6651 14.34217378442920
IRIDIUM 153             
1 43078U 17083J   26159.78226190  .00000022  00000+0  82084-6 0  9990
2 43078  86.3953 293.9858 0002235  91.0282 269.1170 14.34217658444072
IRIDIUM 131             
1 43079U 17083K   26159.74762909 -.00000026  00000+0 -16190-4 0  9999
2 43079  86.3960 325.7056 0002098  91.8257 268.3179 14.34217338442895
IRIDIUM 144             
1 43249U 18030A   26159.78860385 -.00000044  00000+0 -22674-4 0  9996
2 43249  86.3950 293.9126 0001939  95.7812 264.3605 14.34217292428938
IRIDIUM 149             
1 43250U 18030B   26159.79494722  .00000050  00000+0  10821-4 0  9993
2 43250  86.3952 293.8769 0002257  93.2398 266.9056 14.34217840428959
IRIDIUM 157             
1 43251U 18030C   26159.81397492  .00000045  00000+0  90050-5 0  9990
2 43251  86.3954 293.9217 0002195  94.0523 266.0923 14.34217760428934
IRIDIUM 140             
1 43252U 18030D   26159.76323375  .00000042  00000+0  78958-5 0  9994
2 43252  86.3954 293.9556 0002148  92.3114 267.8327 14.34217807428980
IRIDIUM 145             
1 43253U 18030E   26159.75054725  .00000181  00000+0  57739-4 0  9991
2 43253  86.3952 293.9331 0001861  97.0171 263.1236 14.34218261428912
IRIDIUM 146             
1 43254U 18030F   26159.80128948  .00000032  00000+0  44383-5 0  9994
2 43254  86.3953 293.9241 0002098  95.6449 264.4986 14.34217647428934
IRIDIUM 148             
1 43255U 18030G   26159.76957610  .00000001  00000+0 -66105-5 0  9999
2 43255  86.3951 293.9805 0002068  97.2205 262.9225 14.34217436428962
IRIDIUM 142             
1 43256U 18030H   26159.80763154  .00000053  00000+0  11845-4 0  9999
2 43256  86.3951 293.8538 0002041  96.3464 263.7964 14.34217829428935
IRIDIUM 150             
1 43257U 18030J   26159.77591906  .00000054  00000+0  12387-4 0  9993
2 43257  86.3955 293.9832 0002162  92.1960 267.9484 14.34217902428954
IRIDIUM 143             
1 43258U 18030K   26159.75689079  .00000083  00000+0  22519-4 0  9991
2 43258  86.3958 294.0832 0002097  94.3968 265.7468 14.34218152428887
IRIDIUM 161             
1 43478U 18047C   26159.77996471  .00000343  00000+0  96054-4 0  9996
2 43478  86.4481  91.9860 0002543  88.0777 272.0715 14.43278524423927
IRIDIUM 152             
1 43479U 18047D   26159.79937823  .00000031  00000+0  38436-5 0  9990
2 43479  86.3956  91.8390 0002375  84.6667 275.4800 14.34217817421281
IRIDIUM 147             
1 43480U 18047E   26159.80572028  .00000079  00000+0  21152-4 0  9994
2 43480  86.3959  91.8414 0002142  84.9691 275.1749 14.34217809421285
IRIDIUM 110             
1 43481U 18047F   26159.81206392  .00000008  00000+0 -43581-5 0  9998
2 43481  86.3959  91.9304 0002466  86.1524 273.9954 14.34217527421273
IRIDIUM 162             
1 43482U 18047G   26159.77366744  .00000349  00000+0  97903-4 0  9995
2 43482  86.4478  91.8799 0002340  83.4866 276.6601 14.43277166423915
IRIDIUM 160             
1 43569U 18061A   26159.75789883  .00000030  00000+0  37943-5 0  9994
2 43569  86.3967  60.3218 0002277  86.6687 273.4770 14.34217897412167
IRIDIUM 166             
1 43570U 18061B   26159.78326931  .00000004  00000+0 -57454-5 0  9991
2 43570  86.3966  60.2614 0002008  84.8251 275.3173 14.34217493412199
IRIDIUM 158             
1 43571U 18061C   26159.75155610  .00000121  00000+0  36144-4 0  9994
2 43571  86.3966  60.2849 0002272  82.6918 277.4536 14.34217723412157
IRIDIUM 165             
1 43572U 18061D   26159.77692227  .00000188  00000+0  60154-4 0  9998
2 43572  86.3968  60.3203 0002087  85.8344 274.3090 14.34216432412187
IRIDIUM 155             
1 43573U 18061E   26159.80863951  .00000018  00000+0 -72056-6 0  9996
2 43573  86.3964  60.1764 0002166  82.8866 277.2576 14.34217737412155
IRIDIUM 154             
1 43574U 18061F   26159.78961147  .00000062  00000+0  15213-4 0  9998
2 43574  86.3969  60.3179 0002069  87.1433 272.9999 14.34217888412207
IRIDIUM 163             
1 43575U 18061G   26159.77057316  .00000222  00000+0  72166-4 0  9990
2 43575  86.3967  60.2412 0002350  82.9658 277.1805 14.34215693412171
